{"type": "FeatureCollection", "features": [ {"type": "Feature", "properties": {"norad_id": 35884, "name": "COSMOS 2251 DEB", "group": "cosmos-2251-debris", "lat": 33.85011631953385, "lon": -1.9463922106550648, "alt_km": 817.0036285287915, "timestamp": "2025-12-06T16:45:43.118414+00:00", "meta": {"OBJECT_NAME": "COSMOS 2251 DEB", "OBJECT_ID": "1993-036ATX", "EPOCH": "2025-12-01T08:35:40.210656", "MEAN_MOTION": 14.25555603, "ECCENTRICITY": 0.01094526, "INCLINATION": 73.9914, "RA_OF_ASC_NODE": 356.6148, "ARG_OF_PERICENTER": 146.5236, "MEAN_ANOMALY": 214.2894, "EPHEMERIS_TYPE": 0, "CLASSIFICATION_TYPE": "U", "NORAD_CAT_ID": 35884, "ELEMENT_SET_NO": 999, "REV_AT_EPOCH": 22195, "BSTAR": 0.0012758145, "MEAN_MOTION_DOT": 3.19e-05, "MEAN_MOTION_DDOT": 0}, "tle": {"line1": "1 35884U 93036ATX 25335.35810429  .00003190  00000+0  12758-2 0  9996", "line2": "2 35884  73.9914 356.6148 0109452 146.5236 214.2894 14.25555603221959"}}, "geometry": {"type": "Point", "coordinates": [-1.9463922106550648, 33.85011631953385]}}, {"type": "Feature", "properties": {"norad_id": 35885, "name": "COSMOS 2251 DEB", "group": "cosmos-2251-debris", "lat": -65.61408488676383, "lon": -93.25962555524087, "alt_km": 776.3014999704483, "timestamp": "2025-12-06T16:45:43.118424+00:00", "meta": {"OBJECT_NAME": "COSMOS 2251 DEB", "OBJECT_ID": "1993-036ATY", "EPOCH": "2025-12-01T06:48:48.094272", "MEAN_MOTION": 14.37483132, "ECCENTRICITY": 0.0022714, "INCLINATION": 74.0277, "RA_OF_ASC_NODE": 315.8881, "ARG_OF_PERICENTER": 39.4634, "MEAN_ANOMALY": 320.8169, "EPHEMERIS_TYPE": 0, "CLASSIFICATION_TYPE": "U", "NORAD_CAT_ID": 35885, "ELEMENT_SET_NO": 999, "REV_AT_EPOCH": 64851, "BSTAR": 0.00036957, "MEAN_MOTION_DOT": 1.083e-05, "MEAN_MOTION_DDOT": 0}, "tle": {"line1": "1 35885U 93036ATY 25335.28388998  .00001083  00000+0  36957-3 0  9997", "line2": "2 35885  74.0277 315.8881 0022714  39.4634 320.8169 14.37483132648516"}}, "geometry": {"type": "Point", "coordinates": [-93.25962555524087, -65.61408488676383]}}, {"type": "Feature", "properties": {"norad_id": 35888, "name": "COSMOS 2251 DEB", "group": "cosmos-2251-debris", "lat": 27.433609357532003, "lon": 179.6221445496529, "alt_km": 663.3158478293926, "timestamp": "2025-12-06T16:45:43.118434+00:00", "meta": {"OBJECT_NAME": "COSMOS 2251 DEB", "OBJECT_ID": "1993-036AUB", "EPOCH": "2025-12-05T08:47:24.262656", "MEAN_MOTION": 14.58278637, "ECCENTRICITY": 0.00485322, "INCLINATION": 74.0338, "RA_OF_ASC_NODE": 10.7032, "ARG_OF_PERICENTER": 145.0738, "MEAN_ANOMALY": 215.3628, "EPHEMERIS_TYPE": 0, "CLASSIFICATION_TYPE": "U", "NORAD_CAT_ID": 35888, "ELEMENT_SET_NO": 999, "REV_AT_EPOCH": 86166, "BSTAR": 0.00074213275, "MEAN_MOTION_DOT": 3.458e-05, "MEAN_MOTION_DDOT": 0}, "tle": {"line1": "1 35888U 93036AUB 25339.36625304  .00003458  00000+0  74213-3 0  9993", "line2": "2 35888  74.0338  10.7032 0048532 145.0738 215.3628 14.58278637861667"}}, "geometry": {"type": "Point", "coordinates": [179.6221445496529, 27.433609357532003]}}, {"type": "Feature", "properties": {"norad_id": 35890, "name": "COSMOS 2251 DEB", "group": "cosmos-2251-debris", "lat": -31.302519527368215, "lon": 84.341950244159, "alt_km": 744.4392720217475, "timestamp": "2025-12-06T16:45:43.118445+00:00", "meta": {"OBJECT_NAME": "COSMOS 2251 DEB", "OBJECT_ID": "1993-036AUD", "EPOCH": "2025-12-06T00:57:43.066656", "MEAN_MOTION": 14.57303438, "ECCENTRICITY": 0.00535206, "INCLINATION": 73.9376, "RA_OF_ASC_NODE": 255.5099, "ARG_OF_PERICENTER": 21.1486, "MEAN_ANOMALY": 339.1873, "EPHEMERIS_TYPE": 0, "CLASSIFICATION_TYPE": "U", "NORAD_CAT_ID": 35890, "ELEMENT_SET_NO": 999, "REV_AT_EPOCH": 65053, "BSTAR": 0.0031994286, "MEAN_MOTION_DOT": 0.00014768, "MEAN_MOTION_DDOT": 0}, "tle": {"line1": "1 35890U 93036AUD 25340.04008179  .00014768  00000+0  31994-2 0  9992", "line2": "2 35890  73.9376 255.5099 0053520  21.1486 339.1873 14.57303438650535"}}, "geometry": {"type": "Point", "coordinates": [84.341950244159, -31.302519527368215]}}, {"type": "Feature", "properties": {"norad_id": 35891, "name": "COSMOS 2251 DEB", "group": "cosmos-2251-debris", "lat": -73.91040712067097, "lon": 11.455457432208105, "alt_km": 448.15601130283267, "timestamp": "2025-12-06T16:45:43.118455+00:00", "meta": {"OBJECT_NAME": "COSMOS 2251 DEB", "OBJECT_ID": "1993-036AUE", "EPOCH": "2025-12-04T15:01:20.364096", "MEAN_MOTION": 15.32277929, "ECCENTRICITY": 0.0045839, "INCLINATION": 73.9882, "RA_OF_ASC_NODE": 111.2679, "ARG_OF_PERICENTER": 242.1756, "MEAN_ANOMALY": 117.4798, "EPHEMERIS_TYPE": 0, "CLASSIFICATION_TYPE": "U", "NORAD_CAT_ID": 35891, "ELEMENT_SET_NO": 999, "REV_AT_EPOCH": 67096, "BSTAR": 0.0026607, "MEAN_MOTION_DOT": 0.00086647, "MEAN_MOTION_DDOT": 0}, "tle": {"line1": "1 35891U 93036AUE 25338.62593014  .00086647  00000+0  26607-2 0  9991", "line2": "2 35891  73.9882 111.2679 0045839 242.1756 117.4798 15.32277929670960"}}, "geometry": {"type": "Point", "coordinates": [11.455457432208105, -73.91040712067097]}}, {"type": "Feature", "properties": {"norad_id": 35895, "name": "COSMOS 2251 DEB", "group": "cosmos-2251-debris", "lat": -21.22598812555913, "lon": -175.4780848048209, "alt_km": 925.8864997224, "timestamp": "2025-12-06T16:45:43.118466+00:00", "meta": {"OBJECT_NAME": "COSMOS 2251 DEB", "OBJECT_ID": "1993-036AUJ", "EPOCH": "2025-12-06T07:15:24.373152", "MEAN_MOTION": 14.01480847, "ECCENTRICITY": 0.0198613, "INCLINATION": 74.0491, "RA_OF_ASC_NODE": 358.831, "ARG_OF_PERICENTER": 98.7366, "MEAN_ANOMALY": 263.6319, "EPHEMERIS_TYPE": 0, "CLASSIFICATION_TYPE": "U", "NORAD_CAT_ID": 35895, "ELEMENT_SET_NO": 999, "REV_AT_EPOCH": 58922, "BSTAR": 0.0024851459, "MEAN_MOTION_DOT": 4.44e-05, "MEAN_MOTION_DDOT": 0}, "tle": {"line1": "1 35895U 93036AUJ 25340.30236543  .00004440  00000+0  24851-2 0  9994", "line2": "2 35895  74.0491 358.8310 0198613  98.7366 263.6319 14.01480847589225"}}, "geometry": {"type": "Point", "coordinates": [-175.4780848048209, -21.22598812555913]}}, {"type": "Feature", "properties": {"norad_id": 35898, "name": "COSMOS 2251 DEB", "group": "cosmos-2251-debris", "lat": -21.081369152239848, "lon": 136.01889504628684, "alt_km": 604.4592709780163, "timestamp": "2025-12-06T16:45:43.118476+00:00", "meta": {"OBJECT_NAME": "COSMOS 2251 DEB", "OBJECT_ID": "1993-036AUM", "EPOCH": "2025-12-06T04:42:06.695712", "MEAN_MOTION": 14.94546076, "ECCENTRICITY": 0.00792239, "INCLINATION": 73.9919, "RA_OF_ASC_NODE": 310.6798, "ARG_OF_PERICENTER": 95.9742, "MEAN_ANOMALY": 282.4906, "EPHEMERIS_TYPE": 0, "CLASSIFICATION_TYPE": "U", "NORAD_CAT_ID": 35898, "ELEMENT_SET_NO": 999, "REV_AT_EPOCH": 66712, "BSTAR": 0.0010853575, "MEAN_MOTION_DOT": 0.00012471, "MEAN_MOTION_DDOT": 0}, "tle": {"line1": "1 35898U 93036AUM 25340.19591083  .00012471  00000+0  10854-2 0  9998", "line2": "2 35898  73.9919 310.6798 0079223  95.9742 282.4906 14.94546076667125"}}, "geometry": {"type": "Point", "coordinates": [136.01889504628684, -21.081369152239848]}}, {"type": "Feature", "properties": {"norad_id": 35901, "name": "COSMOS 2251 DEB", "group": "cosmos-2251-debris", "lat": -53.14199128844244, "lon": 12.808246748732998, "alt_km": 552.037932410818, "timestamp": "2025-12-06T16:45:43.118486+00:00", "meta": {"OBJECT_NAME": "COSMOS 2251 DEB", "OBJECT_ID": "1993-036AUQ", "EPOCH": "2025-12-05T10:48:37.445760", "MEAN_MOTION": 15.06033554, "ECCENTRICITY": 0.00062959, "INCLINATION": 74.0122, "RA_OF_ASC_NODE": 37.8568, "ARG_OF_PERICENTER": 4.6229, "MEAN_ANOMALY": 15.4034, "EPHEMERIS_TYPE": 0, "CLASSIFICATION_TYPE": "U", "NORAD_CAT_ID": 35901, "ELEMENT_SET_NO": 999, "REV_AT_EPOCH": 86017, "BSTAR": 0.0054470967, "MEAN_MOTION_DOT": 0.00080395, "MEAN_MOTION_DDOT": 0}, "tle": {"line1": "1 35901U 93036AUQ 25339.45043340  .00080395  00000+0  54471-2 0  9991", "line2": "2 35901  74.0122  37.8568 0006295   4.6229  15.4034 15.06033554860179"}}, "geometry": {"type": "Point", "coordinates": [12.808246748732998, -53.14199128844244]}}, {"type": "Feature", "properties": {"norad_id": 35902, "name": "COSMOS 2251 DEB", "group": "cosmos-2251-debris", "lat": 16.171141523729588, "lon": 60.7728061830606, "alt_km": 871.8464948606579, "timestamp": "2025-12-06T16:45:43.118496+00:00", "meta": {"OBJECT_NAME": "COSMOS 2251 DEB", "OBJECT_ID": "1993-036AUR", "EPOCH": "2025-12-01T03:04:00.207552", "MEAN_MOTION": 14.26791124, "ECCENTRICITY": 0.01016301, "INCLINATION": 73.9836, "RA_OF_ASC_NODE": 255.6555, "ARG_OF_PERICENTER": 12.6385, "MEAN_ANOMALY": 347.7274, "EPHEMERIS_TYPE": 0, "CLASSIFICATION_TYPE": "U", "NORAD_CAT_ID": 35902, "ELEMENT_SET_NO": 999, "REV_AT_EPOCH": 60964, "BSTAR": 0.0014097892, "MEAN_MOTION_DOT": 3.584e-05, "MEAN_MOTION_DDOT": 0}, "tle": {"line1": "1 35902U 93036AUR 25335.12778018  .00003584  00000+0  14098-2 0  9995", "line2": "2 35902  73.9836 255.6555 0101630  12.6385 347.7274 14.26791124609642"}}, "geometry": {"type": "Point", "coordinates": [60.7728061830606, 16.171141523729588]}}, {"type": "Feature", "properties": {"norad_id": 35905, "name": "COSMOS 2251 DEB", "group": "cosmos-2251-debris", "lat": -9.407550307946735, "lon": -139.6433208842294, "alt_km": 529.7699834164168, "timestamp": "2025-12-06T16:45:43.118507+00:00", "meta": {"OBJECT_NAME": "COSMOS 2251 DEB", "OBJECT_ID": "1993-036AUU", "EPOCH": "2025-12-05T23:11:04.270560", "MEAN_MOTION": 14.98876189, "ECCENTRICITY": 0.0091036, "INCLINATION": 74.0321, "RA_OF_ASC_NODE": 224.5617, "ARG_OF_PERICENTER": 306.179, "MEAN_ANOMALY": 53.1, "EPHEMERIS_TYPE": 0, "CLASSIFICATION_TYPE": "U", "NORAD_CAT_ID": 35905, "ELEMENT_SET_NO": 999, "REV_AT_EPOCH": 88481, "BSTAR": 0.00094619012, "MEAN_MOTION_DOT": 0.00012441, "MEAN_MOTION_DDOT": 0}, "tle": {"line1": "1 35905U 93036AUU 25339.96602165  .00012441  00000+0  94619-3 0  9993", "line2": "2 35905  74.0321 224.5617 0091036 306.1790  53.1000 14.98876189884812"}}, "geometry": {"type": "Point", "coordinates": [-139.6433208842294, -9.407550307946735]}}]}